1 33539U 88081P   18044.22503675 -.00000179  00000-0 -10483-1 0  9991
2 33539   7.3175  88.3382 7117784 161.5662 250.7713  2.19355675 98119
1 33546U 88109V   18211.36977520 -.00000188  00000-0 -23045-2 0  9994
2 33546   6.6749 203.6558 7111692 157.5293 336.8289  2.23314659111808
1 33549U 89006AR  18209.62236814 -.00000619 +00000-0 -27582-1 0  9992
2 33549 007.3849 306.9573 7054039 037.7917 003.3755 02.25179817104877
1 33550U 89006AS  13322.64391754  .00000261  00000-0  56049-1 0  9993
2 33550   9.3738 329.7427 6984762   6.4640 359.2596  2.22017252 62116
1 33555U 89006AX  16144.01914604 +.00014523 +00000-0 +61360+0 0  9995
2 33555 008.0691 235.8616 7091178 181.7176 334.2519 02.24436161082794
1 33559U 89006BB  16148.65143925  .00000000  00000-0  00000+0 0  9992
2 33559   8.0752 241.6205 7061690 172.2694 210.9540  2.24211245 83385
1 33567U 89006BK  18095.69015056 -.00001347  00000-0 -27724-1 0  9992
2 33567   8.2279 290.7354 7112401  60.4100   0.3222  2.26633629111383
1 33571U 89006BP  15096.69309809 -.00000136 +00000-0 +00000-0 0  9998
2 33571 011.4774 224.7962 6965329 182.3356 354.0938 02.22072931014572
1 33572U 89006BQ  16177.54251838 -.00000035 +00000-0 +00000-0 0  9990
2 33572 007.6902 317.4301 7001497 028.1768 003.7151 02.23242781024357
1 33573U 89006BR  17097.88190017 -.00001522 +00000-0 -98513-1 0  9991
2 33573 011.2516 216.7738 7042339 174.5057 157.9073 02.23571142102697
1 33575U 89006BT  15230.54451341 -.00000142  00000-0  00000+0 0  9991
2 33575   9.4474   3.7338 7067567 283.3342  14.1359  2.24013919 77996
1 33582U 89006CA  18211.16881076  .00000104  00000-0  00000+0 0  9998
2 33582   8.2020  51.8851 5962852 223.4540  70.1421  2.03219414 86285
1 33589U 91003S   18211.35611488 -.00000104  00000-0 -78968-3 0  9998
2 33589   7.1450 133.9664 6788498 328.1583   4.7337  2.63762074116389
1 33590U 91003T   18211.59209275  .00000487  00000-0  92026-2 0  9995
2 33590   7.7548 349.9845 6787003 240.5071  60.0783  2.66870285145339
1 33599U 99025DCG 18212.29900156  .00000600  00000-0  81297-4 0  9997
2 33599  96.6084  38.9630 0309757 112.5623 250.8667 14.53245238567092
1 33600U 99025DCH 18211.97806639  .00001340  00000-0  14378-3 0  9992
2 33600  96.2708 217.1901 0277138 113.3834 249.6782 14.65400518560821
1 33601U 99025DCJ 18211.94790351 +.00000125 +00000-0 +10007-3 0  9998
2 33601 098.2805 208.0680 0174669 184.6062 205.1301 13.98168151529912
1 33603U 99025DCL 18211.87102786 +.00000025 +00000-0 +11279-4 0  9993
2 33603 098.8709 233.2195 0246959 222.8978 135.2730 14.70890805592263
1 33604U 99025DCM 11211.95132915 +.00009429 +00000-0 +89398-3 0  9996
2 33604 099.0468 034.3812 0174254 272.5949 085.5413 14.83026305170732
1 33605U 99025DCN 18212.10886618 -.00000144  00000-0 -63444-4 0  9990
2 33605  98.9183 262.2522 0060308  63.9487 326.4244 14.03587238544809
1 33612U 99025DCV 18212.05659250  .00000262  00000-0  21378-3 0  9990
2 33612  98.6637 314.3100 0123503  39.1463 321.8555 13.94149850558717
1 33613U 99025DCW 18211.36780205 +.00000623 +00000-0 +34376-3 0  9992
2 33613 098.9134 262.3793 0037509 257.3055 102.3924 14.14838262263073
1 33614U 99025DCX 18180.26713303  .00007464  00000-0  69580-3 0  9997
2 33614  96.5373   8.0455 0057906  83.3948 277.3862 14.93167471564201
1 33617U 99025DDA 18211.12937081  .00002577  00000-0  84385-4 0  9992
2 33617  98.0329 331.6708 0148492 242.5420 116.0650 15.22792015561070
1 33618U 99025DDB 18211.77690297  .00000240  00000-0  65480-4 0  9999
2 33618  98.6865 193.5588 0211380   8.9982 351.4904 14.44640498577970
1 33619U 99025DDC 18211.93842684 +.00000212 +00000-0 +15396-3 0  9996
2 33619 099.0443 261.2566 0060047 050.7889 072.2513 14.06035443257100
1 33621U 99025DDE 18211.93905082 +.00000215 +00000-0 +89969-4 0  9992
2 33621 098.1568 245.4398 0309596 179.3085 180.8580 14.11861010262052
1 33622U 99025DDF 18211.36597934 +.00000636 +00000-0 +34357-3 0  9990
2 33622 099.0108 261.5077 0038719 229.6026 130.1766 14.15973938263531
1 33623U 99025DDG 18210.09288620 +.00000575 +00000-0 +36803-3 0  9999
2 33623 098.1877 157.6548 0082373 148.3970 212.2184 14.05150135544165
1 33624U 99025DDH 18212.36312677  .00001496  00000-0  21522-3 0  9997
2 33624  98.1895 262.6256 0382876 268.4622  87.2687 14.38533658539419
1 33625U 99025DDJ 18211.47104543  .00000302  00000-0  73913-4 0  9997
2 33625  98.8370 225.0524 0300586 277.2216  79.4894 14.37090627556629
1 33628U 99025DDM 18211.10143279 +.00001341 +00000-0 +15688-3 0  9997
2 33628 098.2668 308.6292 0165398 177.6524 182.5500 14.77590344557357
1 33629U 99025DDN 18212.09294253  .00005100  00000-0  42706-3 0  9994
2 33629  98.5933 329.9841 0106950 214.2628 145.1659 14.94579853546140
1 33630U 99025DDP 18202.32488259  .00000118  00000-0  77595-4 0  9991
2 33630  98.4031  43.1188 0141518 271.1986  87.2978 14.13186330529738
1 33632U 99025DDR 18210.63804910 +.00001073 +00000-0 +29051-3 0  9996
2 33632 099.0452 100.2683 0053048 300.9869 058.6118 14.49194206540078
1 33633U 99025DDS 18212.04351323  .00000387  00000-0  26572-3 0  9991
2 33633  99.2024 244.6651 0101767  92.8071 298.2023 14.02959853528482
1 33636U 99025DDV 18212.30561608  .00000137  00000-0  77862-4 0  9994
2 33636  98.7215 248.5312 0075100  26.7948  34.1785 14.23179754532550
1 33637U 99025DDW 18208.92055147 +.00000344 +00000-0 +16479-3 0  9990
2 33637 098.7579 257.0694 0101805 096.5816 264.6963 14.22506258264230
1 33638U 99025DDX 18212.34210474  .00000277  00000-0  31058-3 0  9993
2 33638  98.4296  50.8196 0279164 199.6078 159.4161 13.62426730548841
1 33639U 99025DDY 18211.97043224  .00000609  00000-0  30141-3 0  9990
2 33639  98.8634 265.0110 0068699 170.9239 189.3197 14.19814201532063
1 33640U 99025DDZ 18209.93406255 +.00000190 +00000-0 +75696-4 0  9992
2 33640 098.9520 017.9426 0102403 212.8162 146.6637 14.37469622537262
1 33641U 99025DEA 09198.89632304 +.00001626 +00000-0 +52887-3 0  9992
2 33641 099.0148 242.1468 0112466 178.2805 182.5577 14.36727616106609
1 33642U 99025DEB 18179.22483052 +.00063222 +00000-0 +97098-3 0  9996
2 33642 099.2722 335.2718 0031243 329.0194 030.9210 15.53492594239221
1 33643U 99025DEC 18211.18222319  .00000351  00000-0  50297-4 0  9991
2 33643  99.1030 345.5624 0157427  24.9704 335.9014 14.76550112571408
1 33644U 99025DED 15109.67483947 +.00001876 +00000-0 +18075-3 0  9995
2 33644 099.5576 184.5556 0044093 330.5429 029.3301 14.93951255397352
1 33645U 99025DEE 18209.72505775 +.00001116 +00000-0 +26595-3 0  9993
2 33645 099.5540 131.3739 0356245 249.5076 106.7529 14.24167259535206
1 33646U 99025DEF 18210.45534903 -.00000120 +00000-0 -59720-4 0  9994
2 33646 098.5902 278.2967 0125125 086.4483 331.0913 13.92127976551386
1 33647U 99025DEG 18209.24513872 +.00000613 +00000-0 +50816-3 0  9993
2 33647 098.2064 016.5222 0276291 262.3565 094.6133 13.75833388530607
1 33648U 99025DEH 18211.89539270 -.00000050 +00000-0 -30954-5 0  9998
2 33648 098.8641 239.8410 0068941 243.9652 115.4409 14.10607897264175
1 33649U 99025DEJ 18179.34630469  .00036429  00000-0  11609-2 0  9994
2 33649  98.9254 226.0127 0018259  87.1173 273.2154 15.32298623574445
1 33650U 99025DEK 18211.89617221 +.00000395 +00000-0 +36898-3 0  9995
2 33650 099.0790 093.3830 0163727 119.7506 242.0049 13.81616312315781
1 33651U 99025DEL 18211.83013639 -.00000004 +00000-0 +18826-4 0  9993
2 33651 098.9843 227.2538 0119370 209.2955 150.1492 14.18584669260926
1 33655U 99025DEQ 18211.37361769 +.00000419 +00000-0 +10764-3 0  9997
2 33655 098.8548 062.3434 0109662 358.5186 001.5668 14.52531171572211
1 33656U 99025DER 18211.95663521 +.00000133 +00000-0 +82047-4 0  9990
2 33656 098.6958 246.2584 0093908 248.1292 235.3682 14.18431844245174
1 33658U 99025DET 18212.37093257  .00000384  00000-0  48805-3 0  9993
2 33658  99.5357  67.8153 0311615 120.2567 242.9801 13.50577846525380
1 33660U 99025DEV 18212.02191181  .00000049  00000-0  68945-4 0  9999
2 33660  98.6437 290.6238 0113830  89.9004  31.3260 13.89116819541577
1 33661U 99025DEW 18212.49620921  .00000262  00000-0  29253-3 0  9995
2 33661  98.3779  47.9897 0246806 130.0861 261.5839 13.65892153518194
1 33663U 99025DEY 18212.11007008  .00000862  00000-0  48155-3 0  9999
2 33663  98.9269 158.1139 0168051 137.8942 281.7061 14.06441040556004
1 33664U 99025DEZ 17091.67378529  .00000036  00000-0  21288-4 0  9996
2 33664  98.7993 347.9620 0166182 289.0704  69.3133 14.00663130462320
1 33665U 99025DFA 18211.74247464  .00000193  00000-0  72130-4 0  9999
2 33665  98.7331  33.3591 0514686 300.4618  54.6657 13.88363473552261
1 33666U 99025DFB 18177.83185566  .00001341  00000-0  26813-3 0  9997
2 33666  98.8850  41.7027 0081351  83.8280 337.1925 14.61669479564516
1 33668U 99025DFD 18211.01052391 +.00000459 +00000-0 +64302-4 0  9992
2 33668 099.0188 273.3861 0183542 050.7781 310.9557 14.72649723561337
1 33671U 99025DFG 11341.43004073 +.00005503 +00000-0 +10762-2 0  9997
2 33671 099.5270 226.0968 0148785 106.2655 110.6625 14.56499551213865
1 33673U 99025DFJ 18209.88137000 -.00000053 +00000-0 -51863-5 0  9992
2 33673 099.3351 178.5478 0111221 286.8944 103.3189 13.91529765525008
1 33674U 99025DFK 18208.59845236 +.00000307 +00000-0 +34002-3 0  9991
2 33674 098.6194 139.1269 0226028 218.0532 140.4465 13.67967040515349
1 33675U 99025DFL 18211.73641979  .00000650  00000-0  21685-3 0  9994
2 33675  99.1487 129.5424 0053062  44.7192 315.8255 14.40424832549801
1 33676U 99025DFM 18211.43039616 -.00000016 +00000-0 +11716-4 0  9993
2 33676 099.0558 080.0136 0212124 008.0543 113.3058 14.32605070267401
1 33677U 99025DFN 11269.42251406 +.00003034 +00000-0 +98037-3 0  9994
2 33677 098.8860 337.2006 0103259 351.6297 008.4373 14.36884197199400
1 33678U 99025DFP 18210.41980169 +.00000065 +00000-0 +31973-4 0  9990
2 33678 099.0518 088.1318 0235920 242.5180 115.1844 14.35818689563677
1 33679U 99025DFQ 18211.58930804  .00000564  00000-0  91646-4 0  9998
2 33679  99.3926 254.8990 0328649 119.0631 244.3897 14.45864406550221
1 33680U 99025DFR 18212.27684323  .00001672  00000-0  28367-3 0  9999
2 33680  99.4473  10.1895 0070220 243.7022 238.8872 14.69362733590571
